STARLINK-1890           
1 47173U 20088BD  21297.41189201  .00001848  00000-0  14293-3 0  9990
2 47173  53.0545 272.0792 0001603  74.6589 285.4577 15.06402996 51099
STARLINK-1891           
1 47174U 20088BE  21297.42020799  .00001491  00000-0  11896-3 0  9998
2 47174  53.0547 272.0460 0001440  62.6904 297.4231 15.06402633 51099
STARLINK-1895           
1 47175U 20088BF  21297.28566504  .00000095  00000-0  25271-4 0  9994
2 47175  53.0548 252.6312 0001580  58.8165 301.2978 15.06399594 51354
STARLINK-1907           
1 47177U 20088BH  21297.13730793 -.00000313  00000-0 -21191-5 0  9996
2 47177  53.0530 263.3178 0001471  72.3486 287.7663 15.06397952 51199
STARLINK-1912           
1 47178U 20088BJ  21297.31700237 -.00001538  00000-0 -84372-4 0  9996
2 47178  53.0546 272.4929 0001345  57.8934 302.2185 15.06395308 51070
STARLINK-1913           
1 47179U 20088BK  21297.43771763  .00001443  00000-0  11579-3 0  9993
2 47179  53.0536 281.9616 0001557  67.1399 292.9754 15.06397221 50951
STARLINK-1914           
1 47180U 20088BL  21297.34356052  .00560542  13836-3  14809-2 0  9997
2 47180  53.0494 254.3425 0003155 161.0431 199.0714 15.94171443 51334
STARLINK-1927           
1 47181U 20088BM  21297.34463666  .00000413  00000-0  46603-4 0  9999
2 47181  53.0549 252.3743 0001571  81.2658 278.8509 15.06406881 51362
LUCAS (JDRS-1)          
1 47202U 20089A   21297.59129502 -.00000229  00000-0  00000-0 0  9992
2 47202   0.0417 102.6809 0001769 115.0525 119.1488  1.00272832  3399
FALCON EYE 2            
1 47226U 20090A   21297.47116815  .00000289  00000-0  40272-4 0  9994
2 47226  97.8514  10.6030 0001586  79.6788 280.4599 14.84898385 48447
GONETS-M 20             
1 47227U 20091A   21297.44086374  .00000017  00000-0  51350-4 0  9997
2 47227  82.5000 277.0553 0019374 286.5721  73.3235 12.42887539 40425
GONETS-M 21             
1 47228U 20091B   21297.41840544  .00000049  00000-0  28545-3 0  9996
2 47228  82.4920 276.8337 0013613 301.3737  58.6007 12.42883521 40415
GONETS-M 22             
1 47229U 20091C   21297.47068902  .00000041  00000-0  22235-3 0  9995
2 47229  82.4980 276.9072 0020261 279.4674  80.4112 12.42877495 40414
COSMOS 2548             
1 47230U 20091D   21297.55519456  .00000011  00000-0  10442-4 0  9996
2 47230  82.4954 276.8096 0014085 298.3455  61.6203 12.42881545 40284
GAOFEN 14               
1 47231U 20092A   21297.41230410  .00001729  00000-0  70744-4 0  9991
2 47231  97.4101  12.7774 0001009 274.2821 216.4030 15.25671434 49125
GECAM-A                 
1 47234U 20094A   21296.98636884  .00000503  00000-0  36231-4 0  9994
2 47234  28.9977 146.5607 0012485 330.7452  29.2439 14.90802632 47473
GECAM-B                 
1 47235U 20094B   21297.03475255  .00000530  00000-0  38823-4 0  9994
2 47235  28.9986 145.9777 0012948 330.2775  29.7081 14.90887592 47489
SXM-7                   
1 47240U 20096A   21297.55942206 -.00000016  00000-0  00000+0 0  9995
2 47240   0.0193 251.0514 0001038 105.2665 122.9770  1.00275084  3320
IPM 2 & BREEZE-M R/B    
1 47242U 20097A   21296.46106610 -.00000126  00000-0  00000-0 0  9991
2 47242   0.7794 100.4620 0086352 225.3139  33.7108  0.95298640  3097
STRIX-ALPHA             
1 47253U 20098A   21297.55437681  .00003466  00000-0  15378-3 0  9996
2 47253  97.3420 188.1995 0011859 285.9961 191.7675 15.22179924 47608
CMS-01                  
1 47256U 20099A   21297.59129502 -.00000159  00000-0  00000-0 0  9994
2 47256   0.1150  95.7216 0007353 158.9557  74.4725  1.00271960  3188
ONEWEB-0102             
1 47258U 20100A   21297.55234134  .00000209  00000-0  54505-3 0  9990
2 47258  87.8868 328.0157 0002199  99.5218 260.6159 13.12450829 42183
ONEWEB-0109             
1 47259U 20100B   21297.56386020 -.00000221  00000-0 -64893-3 0  9991
2 47259  87.8929 327.8648 0002070  93.8944 266.2421 13.12444088 42011
ONEWEB-0110             
1 47260U 20100C   21297.51077113 -.00000290  00000-0 -84091-3 0  9996
2 47260  87.8891 327.9599 0002428  98.8601 261.2802 13.12457702 42171
ONEWEB-0111             
1 47261U 20100D   21297.54076512  .00000426  00000-0  11497-2 0  9990
2 47261  87.8892 327.9810 0002149  98.1250 262.0122 13.12449056 42012
ONEWEB-0114             
1 47262U 20100E   21297.49687579 -.00000020  00000-0 -90035-4 0  9995
2 47262  87.8930 327.8424 0002139  88.3381 271.7992 13.12438793 41962
ONEWEB-0117             
1 47263U 20100F   21297.56617159 -.00000265  00000-0 -77083-3 0  9999
2 47263  87.8843 327.9185 0002170  96.6262 263.5113 13.12446825 41987
ONEWEB-0118             
1 47264U 20100G   21297.51994347 -.00000316  00000-0 -91509-3 0  9998
2 47264  87.8876 327.9649 0001625  67.2456 292.8844 13.12447944 42173
ONEWEB-0119             
1 47265U 20100H   21297.54769821  .00000337  00000-0  90132-3 0  9991
2 47265  87.8866 328.0243 0002049  95.4456 264.6906 13.12447128 42157
ONEWEB-0120             
1 47266U 20100J   21297.50147861 -.00000422  00000-0 -12082-2 0  9996
2 47266  87.8941 327.9546 0002138  90.2643 269.8731 13.12441470 42175
ONEWEB-0121             
1 47267U 20100K   21297.56156161 -.00000098  00000-0 -30870-3 0  9991
2 47267  87.8948 327.9984 0002001 102.1608 257.9745 13.12440685 42093
ONEWEB-0122             
1 47268U 20100L   21297.55464548  .00000096  00000-0  23010-3 0  9996
2 47268  87.8858 327.9177 0002009  93.7420 266.3938 13.12445143 42006
ONEWEB-0123             
1 47269U 20100M   21297.54999092 -.00000315  00000-0 -91075-3 0  9995
2 47269  87.8882 327.9925 0001910  92.3081 267.8266 13.12442031 42141
ONEWEB-0124             
1 47270U 20100N   21297.53611850  .00000391  00000-0  10510-2 0  9995
2 47270  87.8851 327.9313 0001892 111.5679 248.5651 13.12451718 42029
ONEWEB-0125             
1 47271U 20100P   21297.51532457 -.00000183  00000-0 -54332-3 0  9991
2 47271  87.8927 328.0096 0002082  85.5830 274.5536 13.12436500 42084
ONEWEB-0126             
1 47272U 20100Q   21297.53961307  .00000436  00000-0  11776-2 0  9997
2 47272  87.8882 328.0410 0002208  92.8425 267.2956 13.12441689 42153
ONEWEB-0127             
1 47273U 20100R   21297.50375816 -.00000436  00000-0 -12461-2 0  9993
2 47273  87.8859 327.9468 0001846  91.6986 268.4354 13.12443649 42170
ONEWEB-0128             
1 47274U 20100S   21297.52457233  .00000129  00000-0  32351-3 0  9998
2 47274  87.8879 327.9548 0002319 104.6959 255.4427 13.12436868 42197
ONEWEB-0129             
1 47275U 20100T   21297.50609222 -.00000372  00000-0 -10708-2 0  9997
2 47275  87.8893 327.8940 0003084  63.7344 296.4101 13.12439072 42129
ONEWEB-0130             
1 47276U 20100U   21297.53150588  .00000326  00000-0  87191-3 0  9995
2 47276  87.8914 327.9677 0002071 101.0097 259.1265 13.12438839 42091
ONEWEB-0131             
1 47277U 20100V   21297.52917443  .00000172  00000-0  44145-3 0  9997
2 47277  87.8912 327.9163 0001960 102.9892 257.1456 13.12438953 42131
ONEWEB-0132             
1 47278U 20100W   21297.55924222 -.00000051  00000-0 -17637-3 0  9998
2 47278  87.8875 328.0243 0002068  87.7816 272.3549 13.12446728 42037
ONEWEB-0133             
1 47279U 20100X   21297.49916652 -.00000440  00000-0 -12582-2 0  9995
2 47279  87.8900 327.9267 0001978  94.2093 265.9262 13.12437947 42189
ONEWEB-0134             
1 47280U 20100Y   21297.54304914 -.00001947  00000-0 -54489-2 0  9990
2 47280  87.8867 327.9503 0002185 101.5836 258.5538 13.12451948 42163
ONEWEB-0135             
1 47281U 20100Z   21297.51303528 -.00000242  00000-0 -70894-3 0  9994
2 47281  87.8873 327.9442 0002067  92.5749 267.5616 13.12436596 42185
ONEWEB-0136             
1 47282U 20100AA  21297.53381307  .00000385  00000-0  10345-2 0  9998
2 47282  87.8895 327.9020 0002954  97.1807 262.9657 13.12442884 42117
ONEWEB-0137             
1 47283U 20100AB  21297.49456489  .00000443  00000-0  11973-2 0  9991
2 47283  87.8857 328.0193 0001935  85.7500 274.3849 13.12441005 42013
ONEWEB-0138             
1 47284U 20100AC  21297.54539350  .00000325  00000-0  86789-3 0  9994
2 47284  87.8859 327.9972 0002236  93.0604 267.0781 13.12444766 42102
ONEWEB-0139             
1 47285U 20100AD  21297.51765553 -.00000143  00000-0 -43286-3 0  9993
2 47285  87.8913 328.0337 0002302  97.5299 262.6091 13.12444283 42170
ONEWEB-0140             
1 47286U 20100AE  21297.53843263  .00000395  00000-0  10629-2 0  9992
2 47286  87.8889 327.9926 0002158  96.9232 263.2143 13.12436258 42149
ONEWEB-0141             
1 47287U 20100AF  21297.53034141  .00000268  00000-0  70998-3 0  9995
2 47287  87.8864 327.9918 0002101  96.7071 263.4296 13.12437365 42120
ONEWEB-0142             
1 47288U 20100AG  21297.55116464  .00000189  00000-0  48912-3 0  9990
2 47288  87.8890 328.0658 0002118  85.3759 274.7612 13.12447732 42124
ONEWEB-0143             
1 47289U 20100AH  21297.50838418 -.00000340  00000-0 -97928-3 0  9998
2 47289  87.8914 327.9482 0001975  95.2251 264.9103 13.12439395 42090
ONEWEB-0144             
1 47290U 20100AJ  21297.55695064  .00000012  00000-0 -16966-5 0  9993
2 47290  87.8930 327.8581 0002201  99.9169 260.2208 13.12448664 42028
ONEWEB-0145             
1 47291U 20100AK  21297.52690848  .00000187  00000-0  48411-3 0  9996
2 47291  87.8887 327.9742 0001908  92.2816 267.8531 13.12430342 42215
ONEWEB-0146             
1 47292U 20100AL  21297.52220359  .00002748  00000-0  76057-2 0  9994
2 47292  87.8873 328.0046 0000886 121.5251 238.5964 13.12409599 42128
ONEWEB-0147             
1 47293U 20100AM  21297.49225614 -.00000332  00000-0 -95948-3 0  9990
2 47293  87.8892 328.0020 0002787  93.0120 267.1328 13.12444136 42018
YUANGUANG               
1 47296U 20102A   21297.41051057  .00002297  00000-0  11095-3 0  9996
2 47296  97.4358  32.8944 0007351 187.8986 236.5403 15.19628216 46496
HAISI 1                 
1 47297U 20102B   21297.38146410  .00000686  00000-0  35182-4 0  9995
2 47297  97.4338  33.0019 0006063 167.5733 257.7583 15.19843022 46482
